start=new Date('2022-01-04T00:00:00.000Z').valueOf();
sats=[{"APOAPSIS":"574.128","NORAD_CAT_ID":"49132","MEAN_MOTION":"14.98310891","OBJECT_NAME":"STARLINK-3090","TIME_SYSTEM":"UTC","COUNTRY_CODE":"US","DECAY_DATE":null,"LAUNCH_DATE":"2021-09-14","PERIOD":"96.108","MEAN_ELEMENT_THEORY":"SGP4","EPOCH":"2022-01-03T22:00:00.999936","OBJECT_TYPE":"PAYLOAD","SEMIMAJOR_AXIS":"6950.252","REF_FRAME":"TEME","CENTER_NAME":"EARTH","RA_OF_ASC_NODE":"181.4689","TLE_LINE1":"1 49132U 21082C   22003.91667824  .00034741  00000-0  29064-2 0  9994","RCS_SIZE":"LARGE","EPHEMERIS_TYPE":"0","PERIAPSIS":"570.106","FILE":"3256498","CLASSIFICATION_TYPE":"U","GP_ID":"193019769","MEAN_MOTION_DOT":"0.00034741","ARG_OF_PERICENTER":"275.8567","INCLINATION":"69.9988","SITE":"AFWTR","REV_AT_EPOCH":"360","MEAN_MOTION_DDOT":"0.0000000000000","MEAN_ANOMALY":"26.6748","ELEMENT_SET_NO":"999","OBJECT_ID":"2021-082C","TLE_LINE2":"2 49132  69.9988 181.4689 0002894 275.8567  26.6748 14.98310891  3606","ECCENTRICITY":"0.00028940","BSTAR":"0.00290640000000"},{"MEAN_MOTION":"14.98306595","NORAD_CAT_ID":"49133","APOAPSIS":"574.261","OBJECT_NAME":"STARLINK-3077","TIME_SYSTEM":"UTC","COUNTRY_CODE":"US","DECAY_DATE":null,"LAUNCH_DATE":"2021-09-14","PERIOD":"96.109","EPOCH":"2022-01-03T22:00:00.999936","MEAN_ELEMENT_THEORY":"SGP4","OBJECT_TYPE":"PAYLOAD","SEMIMAJOR_AXIS":"6950.265","REF_FRAME":"TEME","CENTER_NAME":"EARTH","TLE_LINE1":"1 49133U 21082D   22003.91667824  .00035339  00000-0  29564-2 0  9994","RA_OF_ASC_NODE":"181.4682","RCS_SIZE":"LARGE","EPHEMERIS_TYPE":"0","PERIAPSIS":"570.000","FILE":"3256498","GP_ID":"193019519","MEAN_MOTION_DOT":"0.00035339","CLASSIFICATION_TYPE":"U","INCLINATION":"69.9993","SITE":"AFWTR","REV_AT_EPOCH":"360","ARG_OF_PERICENTER":"271.7793","MEAN_MOTION_DDOT":"0.0000000000000","ELEMENT_SET_NO":"999","MEAN_ANOMALY":"56.4976","TLE_LINE2":"2 49133  69.9993 181.4682 0003065 271.7793  56.4976 14.98306595  3603","OBJECT_ID":"2021-082D","ECCENTRICITY":"0.00030650","BSTAR":"0.00295640000000"},{"PERIOD":"96.109","EPOCH":"2022-01-03T22:00:00.999936","MEAN_ELEMENT_THEORY":"SGP4","OBJECT_TYPE":"PAYLOAD","SEMIMAJOR_AXIS":"6950.269","REF_FRAME":"TEME","CENTER_NAME":"EARTH","TLE_LINE1":"1 49134U 21082E   22003.91667824  .00035082  00000-0  29351-2 0  9994","RA_OF_ASC_NODE":"181.4683","MEAN_MOTION":"14.98305536","APOAPSIS":"574.228","NORAD_CAT_ID":"49134","TIME_SYSTEM":"UTC","OBJECT_NAME":"STARLINK-3078","COUNTRY_CODE":"US","DECAY_DATE":null,"LAUNCH_DATE":"2021-09-14","TLE_LINE2":"2 49134  69.9980 181.4683 0003013 273.6918  80.2570 14.98305536  3591","OBJECT_ID":"2021-082E","ECCENTRICITY":"0.00030130","BSTAR":"0.00293510000000","RCS_SIZE":"LARGE","EPHEMERIS_TYPE":"0","PERIAPSIS":"570.039","FILE":"3256498","GP_ID":"193018272","CLASSIFICATION_TYPE":"U","MEAN_MOTION_DOT":"0.00035082","INCLINATION":"69.9980","SITE":"AFWTR","REV_AT_EPOCH":"359","ARG_OF_PERICENTER":"273.6918","MEAN_MOTION_DDOT":"0.0000000000000","ELEMENT_SET_NO":"999","MEAN_ANOMALY":"80.2570"},{"OBJECT_ID":"2021-082F","TLE_LINE2":"2 49135  69.9983 172.6490 0003872 281.3705 184.7176 15.69756000  3683","BSTAR":"-0.00027275000000","ECCENTRICITY":"0.00038720","FILE":"3256498","PERIAPSIS":"356.988","EPHEMERIS_TYPE":"0","RCS_SIZE":"LARGE","MEAN_ANOMALY":"184.7176","ELEMENT_SET_NO":"999","MEAN_MOTION_DDOT":"0.0000000000000","ARG_OF_PERICENTER":"281.3705","SITE":"AFWTR","REV_AT_EPOCH":"368","INCLINATION":"69.9983","CLASSIFICATION_TYPE":"U","GP_ID":"193019018","MEAN_MOTION_DOT":"-0.00032659","SEMIMAJOR_AXIS":"6737.732","OBJECT_TYPE":"PAYLOAD","MEAN_ELEMENT_THEORY":"SGP4","EPOCH":"2022-01-03T22:00:00.999936","PERIOD":"91.734","RA_OF_ASC_NODE":"172.6490","TLE_LINE1":"1 49135U 21082F   22003.91667824 -.00032659  00000-0 -27275-3 0  9998","CENTER_NAME":"EARTH","REF_FRAME":"TEME","OBJECT_NAME":"STARLINK-3073","TIME_SYSTEM":"UTC","NORAD_CAT_ID":"49135","APOAPSIS":"362.206","MEAN_MOTION":"15.69756000","LAUNCH_DATE":"2021-09-14","DECAY_DATE":null,"COUNTRY_CODE":"US"},{"NORAD_CAT_ID":"49136","APOAPSIS":"362.084","MEAN_MOTION":"15.69709684","OBJECT_NAME":"STARLINK-3084","TIME_SYSTEM":"UTC","COUNTRY_CODE":"US","LAUNCH_DATE":"2021-09-14","DECAY_DATE":null,"MEAN_ELEMENT_THEORY":"SGP4","EPOCH":"2022-01-03T22:00:00.999936","PERIOD":"91.737","SEMIMAJOR_AXIS":"6737.865","OBJECT_TYPE":"PAYLOAD","CENTER_NAME":"EARTH","REF_FRAME":"TEME","RA_OF_ASC_NODE":"172.6565","TLE_LINE1":"1 49136U 21082G   22003.91667824  .00064785  00000-0  54116-3 0  9996","PERIAPSIS":"357.375","EPHEMERIS_TYPE":"0","RCS_SIZE":"LARGE","FILE":"3256498","ARG_OF_PERICENTER":"278.2864","SITE":"AFWTR","INCLINATION":"69.9968","REV_AT_EPOCH":"368","MEAN_MOTION_DOT":"0.00064785","GP_ID":"193019274","CLASSIFICATION_TYPE":"U","MEAN_ANOMALY":"185.6932","ELEMENT_SET_NO":"999","MEAN_MOTION_DDOT":"0.0000000000000","OBJECT_ID":"2021-082G","TLE_LINE2":"2 49136  69.9968 172.6565 0003494 278.2864 185.6932 15.69709684  3687","BSTAR":"0.00054116000000","ECCENTRICITY":"0.00034940"},{"BSTAR":"0.00052798000000","ECCENTRICITY":"0.00035130","OBJECT_ID":"2021-082H","TLE_LINE2":"2 49137  69.9983 172.6473 0003513 277.8353 190.3593 15.69718877  3683","MEAN_ANOMALY":"190.3593","ELEMENT_SET_NO":"999","MEAN_MOTION_DDOT":"0.0000000000000","ARG_OF_PERICENTER":"277.8353","REV_AT_EPOCH":"368","SITE":"AFWTR","INCLINATION":"69.9983","MEAN_MOTION_DOT":"0.00063214","GP_ID":"193020015","CLASSIFICATION_TYPE":"U","FILE":"3256498","PERIAPSIS":"357.336","RCS_SIZE":"LARGE","EPHEMERIS_TYPE":"0","RA_OF_ASC_NODE":"172.6473","TLE_LINE1":"1 49137U 21082H   22003.91667824  .00063214  00000-0  52798-3 0  9997","CENTER_NAME":"EARTH","REF_FRAME":"TEME","SEMIMAJOR_AXIS":"6737.838","OBJECT_TYPE":"PAYLOAD","MEAN_ELEMENT_THEORY":"SGP4","EPOCH":"2022-01-03T22:00:00.999936","PERIOD":"91.736","LAUNCH_DATE":"2021-09-14","DECAY_DATE":null,"COUNTRY_CODE":"US","OBJECT_NAME":"STARLINK-3055","TIME_SYSTEM":"UTC","NORAD_CAT_ID":"49137","APOAPSIS":"362.070","MEAN_MOTION":"15.69718877"},{"LAUNCH_DATE":"2021-09-14","DECAY_DATE":null,"COUNTRY_CODE":"US","TIME_SYSTEM":"UTC","OBJECT_NAME":"STARLINK-3058","MEAN_MOTION":"14.97505690","NORAD_CAT_ID":"49138","APOAPSIS":"576.971","TLE_LINE1":"1 49138U 21082J   22003.91667824  .00040618  00000-0  34650-2 0  9997","RA_OF_ASC_NODE":"181.3739","CENTER_NAME":"EARTH","REF_FRAME":"TEME","SEMIMAJOR_AXIS":"6952.743","OBJECT_TYPE":"PAYLOAD","EPOCH":"2022-01-03T22:00:00.999936","MEAN_ELEMENT_THEORY":"SGP4","PERIOD":"96.160","ELEMENT_SET_NO":"999","MEAN_ANOMALY":"199.0878","MEAN_MOTION_DDOT":"0.0000000000000","SITE":"AFWTR","REV_AT_EPOCH":"359","INCLINATION":"69.9987","ARG_OF_PERICENTER":"265.2345","GP_ID":"193018768","CLASSIFICATION_TYPE":"U","MEAN_MOTION_DOT":"0.00040618","FILE":"3256498","PERIAPSIS":"572.245","RCS_SIZE":"LARGE","EPHEMERIS_TYPE":"0","BSTAR":"0.00346500000000","ECCENTRICITY":"0.00033990","TLE_LINE2":"2 49138  69.9987 181.3739 0003399 265.2345 199.0878 14.97505690  3593","OBJECT_ID":"2021-082J"},{"EPOCH":"2022-01-03T22:00:00.999936","MEAN_ELEMENT_THEORY":"SGP4","PERIOD":"91.736","SEMIMAJOR_AXIS":"6737.817","OBJECT_TYPE":"PAYLOAD","CENTER_NAME":"EARTH","REF_FRAME":"TEME","TLE_LINE1":"1 49139U 21082K   22003.91667824  .00064122  00000-0  53530-3 0  9993","RA_OF_ASC_NODE":"172.6410","MEAN_MOTION":"15.69726443","APOAPSIS":"362.134","NORAD_CAT_ID":"49139","OBJECT_NAME":"STARLINK-3057","TIME_SYSTEM":"UTC","COUNTRY_CODE":"US","LAUNCH_DATE":"2021-09-14","DECAY_DATE":null,"TLE_LINE2":"2 49139  69.9992 172.6410 0003640 278.9496 193.4903 15.69726443  3684","OBJECT_ID":"2021-082K","BSTAR":"0.00053530000000","ECCENTRICITY":"0.00036400","PERIAPSIS":"357.229","EPHEMERIS_TYPE":"0","RCS_SIZE":"LARGE","FILE":"3256498","SITE":"AFWTR","INCLINATION":"69.9992","REV_AT_EPOCH":"368","ARG_OF_PERICENTER":"278.9496","GP_ID":"193018523","CLASSIFICATION_TYPE":"U","MEAN_MOTION_DOT":"0.00064122","ELEMENT_SET_NO":"999","MEAN_ANOMALY":"193.4903","MEAN_MOTION_DDOT":"0.0000000000000"},{"ECCENTRICITY":"0.00036670","BSTAR":"0.00017838000000","TLE_LINE2":"2 49140  69.9987 172.6356 0003667 281.4615 197.3831 15.69732575  3686","OBJECT_ID":"2021-082L","MEAN_MOTION_DDOT":"0.0000000000000","ELEMENT_SET_NO":"999","MEAN_ANOMALY":"197.3831","GP_ID":"193019770","CLASSIFICATION_TYPE":"U","MEAN_MOTION_DOT":"0.00021122","REV_AT_EPOCH":"368","SITE":"AFWTR","INCLINATION":"69.9987","ARG_OF_PERICENTER":"281.4615","FILE":"3256498","EPHEMERIS_TYPE":"0","RCS_SIZE":"LARGE","PERIAPSIS":"357.193","TLE_LINE1":"1 49140U 21082L   22003.91667824  .00021122  00000-0  17838-3 0  9999","RA_OF_ASC_NODE":"172.6356","REF_FRAME":"TEME","CENTER_NAME":"EARTH","OBJECT_TYPE":"PAYLOAD","SEMIMAJOR_AXIS":"6737.799","PERIOD":"91.735","EPOCH":"2022-01-03T22:00:00.999936","MEAN_ELEMENT_THEORY":"SGP4","DECAY_DATE":null,"LAUNCH_DATE":"2021-09-14","COUNTRY_CODE":"US","TIME_SYSTEM":"UTC","OBJECT_NAME":"STARLINK-3118","MEAN_MOTION":"15.69732575","NORAD_CAT_ID":"49140","APOAPSIS":"362.135"},{"ECCENTRICITY":"0.00037040","BSTAR":"-0.00173390000000","TLE_LINE2":"2 49141  70.0003 181.4896 0003704 303.5737  56.5068 14.98425004 18635","OBJECT_ID":"2021-082M","MEAN_MOTION_DDOT":"0.0000000000000","ELEMENT_SET_NO":"999","MEAN_ANOMALY":"56.5068","CLASSIFICATION_TYPE":"U","GP_ID":"193019520","MEAN_MOTION_DOT":"-0.00020772","INCLINATION":"70.0003","SITE":"AFWTR","REV_AT_EPOCH":"1863","ARG_OF_PERICENTER":"303.5737","FILE":"3256498","EPHEMERIS_TYPE":"0","RCS_SIZE":"LARGE","PERIAPSIS":"569.190","TLE_LINE1":"1 49141U 21082M   22003.90827045 -.00020772  00000-0 -17339-2 0  9999","RA_OF_ASC_NODE":"181.4896","REF_FRAME":"TEME","CENTER_NAME":"EARTH","OBJECT_TYPE":"PAYLOAD","SEMIMAJOR_AXIS":"6949.899","PERIOD":"96.101","EPOCH":"2022-01-03T21:47:54.566880","MEAN_ELEMENT_THEORY":"SGP4","DECAY_DATE":null,"LAUNCH_DATE":"2021-09-14","COUNTRY_CODE":"US","OBJECT_NAME":"STARLINK-3093","TIME_SYSTEM":"UTC","MEAN_MOTION":"14.98425004","APOAPSIS":"574.338","NORAD_CAT_ID":"49141"}];
